{
  "type": "FeatureCollection",
  "features": [
    {
      "type": "Feature",
      "properties": {
        "norad_id": 37978,
        "name": "COSMOS 2251 DEB",
        "group": "cosmos-2251-debris",
        "lat": -56.36761595710193,
        "lon": 70.018991454731,
        "alt_km": 333.3987508345708,
        "timestamp": "2025-12-09T21:34:11.807544+00:00",
        "meta_object_name": "COSMOS 2251 DEB",
        "meta_object_id": "1993-036BQD",
        "meta_epoch": "2025-11-19T05:08:53.100672",
        "meta_mean_motion": 15.61137081,
        "meta_eccentricity": 0.00148985,
        "meta_inclination": 74.0238,
        "meta_ra_of_asc_node": 142.2198,
        "meta_arg_of_pericenter": 140.9849,
        "meta_mean_anomaly": 219.2448,
        "meta_ephemeris_type": 0,
        "meta_classification_type": "U",
        "meta_norad_cat_id": 37978,
        "meta_element_set_no": 999,
        "meta_rev_at_epoch": 8032,
        "meta_bstar": 0.0043958825,
        "meta_mean_motion_dot": 0.0039117,
        "meta_mean_motion_ddot": 0,
        "tle_line1": "1 37978U 93036BQD 25323.21450348  .00391170  00000+0  43959-2 0  9999",
        "tle_line2": "2 37978  74.0238 142.2198 0014898 140.9849 219.2448 15.61137081 80328"
      },
      "geometry": {
        "type": "Point",
        "coordinates": [
          70.018991454731,
          -56.36761595710193
        ]
      }
    },
    {
      "type": "Feature",
      "properties": {
        "norad_id": 37985,
        "name": "COSMOS 2251 DEB",
        "group": "cosmos-2251-debris",
        "lat": -48.045559753219365,
        "lon": -107.62851554280712,
        "alt_km": 778.6986336157397,
        "timestamp": "2025-12-09T21:34:11.807566+00:00",
        "meta_object_name": "COSMOS 2251 DEB",
        "meta_object_id": "1993-036BQL",
        "meta_epoch": "2025-12-07T12:56:14.167968",
        "meta_mean_motion": 14.35480265,
        "meta_eccentricity": 0.00206161,
        "meta_inclination": 74.0254,
        "meta_ra_of_asc_node": 275.2818,
        "meta_arg_of_pericenter": 39.5807,
        "meta_mean_anomaly": 320.6846,
        "meta_ephemeris_type": 0,
        "meta_classification_type": "U",
        "meta_norad_cat_id": 37985,
        "meta_element_set_no": 999,
        "meta_rev_at_epoch": 64842,
        "meta_bstar": 0.0001017568,
        "meta_mean_motion_dot": 2.67e-06,
        "meta_mean_motion_ddot": 0,
        "tle_line1": "1 37985U 93036BQL 25341.53905287  .00000267  00000+0  10176-3 0  9999",
        "tle_line2": "2 37985  74.0254 275.2818 0020616  39.5807 320.6846 14.35480265648427"
      },
      "geometry": {
        "type": "Point",
        "coordinates": [
          -107.62851554280712,
          -48.045559753219365
        ]
      }
    },
    {
      "type": "Feature",
      "properties": {
        "norad_id": 37988,
        "name": "COSMOS 2251 DEB",
        "group": "cosmos-2251-debris",
        "lat": -29.32772142850811,
        "lon": 20.2767206589061,
        "alt_km": 676.714039128864,
        "timestamp": "2025-12-09T21:34:11.807587+00:00",
        "meta_object_name": "COSMOS 2251 DEB",
        "meta_object_id": "1993-036BQP",
        "meta_epoch": "2025-12-08T13:00:57.140928",
        "meta_mean_motion": 14.6880347,
        "meta_eccentricity": 0.0063188,
        "meta_inclination": 74.0631,
        "meta_ra_of_asc_node": 32.1342,
        "meta_arg_of_pericenter": 70.9756,
        "meta_mean_anomaly": 289.8245,
        "meta_ephemeris_type": 0,
        "meta_classification_type": "U",
        "meta_norad_cat_id": 37988,
        "meta_element_set_no": 999,
        "meta_rev_at_epoch": 23334,
        "meta_bstar": 0.0011554,
        "meta_mean_motion_dot": 6.927e-05,
        "meta_mean_motion_ddot": 0,
        "tle_line1": "1 37988U 93036BQP 25342.54232802  .00006927  00000+0  11554-2 0  9999",
        "tle_line2": "2 37988  74.0631  32.1342 0063188  70.9756 289.8245 14.68803470233347"
      },
      "geometry": {
        "type": "Point",
        "coordinates": [
          20.2767206589061,
          -29.32772142850811
        ]
      }
    },
    {
      "type": "Feature",
      "properties": {
        "norad_id": 37993,
        "name": "COSMOS 2251 DEB",
        "group": "cosmos-2251-debris",
        "lat": -18.387752948014356,
        "lon": -2.195682559491887,
        "alt_km": 690.9832881921748,
        "timestamp": "2025-12-09T21:34:11.807599+00:00",
        "meta_object_name": "COSMOS 2251 DEB",
        "meta_object_id": "1993-036BQU",
        "meta_epoch": "2025-12-09T05:51:24.736320",
        "meta_mean_motion": 14.59845478,
        "meta_eccentricity": 0.0022054,
        "meta_inclination": 74.0217,
        "meta_ra_of_asc_node": 173.5884,
        "meta_arg_of_pericenter": 262.4751,
        "meta_mean_anomaly": 97.3909,
        "meta_ephemeris_type": 0,
        "meta_classification_type": "U",
        "meta_norad_cat_id": 37993,
        "meta_element_set_no": 999,
        "meta_rev_at_epoch": 65266,
        "meta_bstar": 0.0017274,
        "meta_mean_motion_dot": 8.27e-05,
        "meta_mean_motion_ddot": 0,
        "tle_line1": "1 37993U 93036BQU 25343.24403630  .00008270  00000+0  17274-2 0  9990",
        "tle_line2": "2 37993  74.0217 173.5884 0022054 262.4751  97.3909 14.59845478652667"
      },
      "geometry": {
        "type": "Point",
        "coordinates": [
          -2.195682559491887,
          -18.387752948014356
        ]
      }
    },
    {
      "type": "Feature",
      "properties": {
        "norad_id": 37994,
        "name": "COSMOS 2251 DEB",
        "group": "cosmos-2251-debris",
        "lat": 43.6728699376188,
        "lon": 85.07619146161619,
        "alt_km": 766.8635289916265,
        "timestamp": "2025-12-09T21:34:11.807609+00:00",
        "meta_object_name": "COSMOS 2251 DEB",
        "meta_object_id": "1993-036BQV",
        "meta_epoch": "2025-12-09T04:16:21.574272",
        "meta_mean_motion": 14.39609674,
        "meta_eccentricity": 0.00227751,
        "meta_inclination": 74.037,
        "meta_ra_of_asc_node": 282.2654,
        "meta_arg_of_pericenter": 2.3613,
        "meta_mean_anomaly": 357.7645,
        "meta_ephemeris_type": 0,
        "meta_classification_type": "U",
        "meta_norad_cat_id": 37994,
        "meta_element_set_no": 999,
        "meta_rev_at_epoch": 77013,
        "meta_bstar": 0.00054509171,
        "meta_mean_motion_dot": 1.682e-05,
        "meta_mean_motion_ddot": 0,
        "tle_line1": "1 37994U 93036BQV 25343.17802748  .00001682  00000+0  54509-3 0  9999",
        "tle_line2": "2 37994  74.0370 282.2654 0022775   2.3613 357.7645 14.39609674770136"
      },
      "geometry": {
        "type": "Point",
        "coordinates": [
          85.07619146161619,
          43.6728699376188
        ]
      }
    },
    {
      "type": "Feature",
      "properties": {
        "norad_id": 37996,
        "name": "COSMOS 2251 DEB",
        "group": "cosmos-2251-debris",
        "lat": -17.359392664446457,
        "lon": -156.92895052917422,
        "alt_km": 714.4436055842125,
        "timestamp": "2025-12-09T21:34:11.807619+00:00",
        "meta_object_name": "COSMOS 2251 DEB",
        "meta_object_id": "1993-036BQX",
        "meta_epoch": "2025-11-16T18:35:00.708864",
        "meta_mean_motion": 14.09591608,
        "meta_eccentricity": 0.02219827,
        "meta_inclination": 74.0658,
        "meta_ra_of_asc_node": 248.8308,
        "meta_arg_of_pericenter": 5.4709,
        "meta_mean_anomaly": 354.8776,
        "meta_ephemeris_type": 0,
        "meta_classification_type": "U",
        "meta_norad_cat_id": 37996,
        "meta_element_set_no": 999,
        "meta_rev_at_epoch": 55769,
        "meta_bstar": 0.0096790999,
        "meta_mean_motion_dot": 0.00021331,
        "meta_mean_motion_ddot": 0,
        "tle_line1": "1 37996U 93036BQX 25320.77431376  .00021331  00000+0  96791-2 0  9998",
        "tle_line2": "2 37996  74.0658 248.8308 0221982   5.4709 354.8776 14.09591608557693"
      },
      "geometry": {
        "type": "Point",
        "coordinates": [
          -156.92895052917422,
          -17.359392664446457
        ]
      }
    },
    {
      "type": "Feature",
      "properties": {
        "norad_id": 37998,
        "name": "COSMOS 2251 DEB",
        "group": "cosmos-2251-debris",
        "lat": -22.73626371687451,
        "lon": -126.48680808796152,
        "alt_km": 732.3651858011408,
        "timestamp": "2025-12-09T21:34:11.807630+00:00",
        "meta_object_name": "COSMOS 2251 DEB",
        "meta_object_id": "1993-036BQZ",
        "meta_epoch": "2025-12-07T01:34:33.386016",
        "meta_mean_motion": 14.45444842,
        "meta_eccentricity": 0.00199405,
        "meta_inclination": 74.0387,
        "meta_ra_of_asc_node": 245.6796,
        "meta_arg_of_pericenter": 320.6712,
        "meta_mean_anomaly": 39.2997,
        "meta_ephemeris_type": 0,
        "meta_classification_type": "U",
        "meta_norad_cat_id": 37998,
        "meta_element_set_no": 999,
        "meta_rev_at_epoch": 64205,
        "meta_bstar": 0.00093558552,
        "meta_mean_motion_dot": 3.277e-05,
        "meta_mean_motion_ddot": 0,
        "tle_line1": "1 37998U 93036BQZ 25341.06566419  .00003277  00000+0  93559-3 0  9991",
        "tle_line2": "2 37998  74.0387 245.6796 0019940 320.6712  39.2997 14.45444842642056"
      },
      "geometry": {
        "type": "Point",
        "coordinates": [
          -126.48680808796152,
          -22.73626371687451
        ]
      }
    }
  ]
}